OSCAR 7 (AO-7)          
1 07530U 74089B   22261.47922523 -.00000020  00000+0  16388-3 0  9991
2 07530 101.9151 241.6739 0011879 222.9966 253.3488 12.53657007189365
PHASE 3B (AO-10)        
1 14129U 83058B   22261.03004360 -.00000373  00000+0  00000+0 0  9992
2 14129  26.5363  81.0873 6023256 107.4795 323.8674  2.05872885267326
UOSAT 2 (UO-11)         
1 14781U 84021B   22261.44952757  .00000896  00000+0  11417-3 0  9991
2 14781  97.6263 244.6901 0009018  26.1111 334.0557 14.83804137 74830
LUSAT (LO-19)           
1 20442U 90005G   22260.89143596  .00000114  00000+0  58437-4 0  9999
2 20442  98.8043 227.2091 0010626 256.7829 103.2170 14.33085507706343
EYESAT A (AO-27)        
1 22825U 93061C   22260.86266718  .00000049  00000+0  36609-4 0  9994
2 22825  98.8810 293.8262 0009197 137.4259 222.7637 14.30191465511363
ITAMSAT (IO-26)         
1 22826U 93061D   22261.35308257  .00000065  00000+0  42499-4 0  9997
2 22826  98.8754 294.2002 0009906 124.0180 236.1944 14.30540033511944
RADIO ROSTO (RS-15)     
1 23439U 94085A   22261.52152494 -.00000039  00000+0  10000-3 0  9998
2 23439  64.8204 355.0846 0167877 256.6370 101.5789 11.27572181141982
JAS-2 (FO-29)           
1 24278U 96046B   22261.01013260 -.00000023  00000+0  10990-4 0  9992
2 24278  98.5158 271.9611 0350989  43.2708 319.5439 13.53120234288372
TECHSAT 1B (GO-32)      
1 25397U 98043D   22260.84163595  .00000058  00000+0  44946-4 0  9996
2 25397  98.8258 211.5873 0001314 151.0724 209.0528 14.23770783256577
ISS (ZARYA)             
1 25544U 98067A   22261.43569527  .00008126  00000+0  14945-3 0  9996
2 25544  51.6436 234.6096 0002489 265.1909 239.4163 15.50145274359641
PCSAT (NO-44)           
1 26931U 01043C   22261.21681602  .00000095  00000+0  67963-4 0  9996
2 26931  67.0517 178.9554 0006088 257.7243 102.3177 14.30733539 94833
SAUDISAT 1C (SO-50)     
1 27607U 02058C   22260.72649923  .00000819  00000+0  13217-3 0  9995
2 27607  64.5565  19.5055 0081469 276.7926  82.3911 14.76243540 61992
CUTE-1 (CO-55)          
1 27844U 03031E   22261.48605388  .00000218  00000+0  11709-3 0  9998
2 27844  98.6813 267.7767 0009603 186.1148 173.9914 14.22494537997135
CUBESAT XI-IV (CO-57)   
1 27848U 03031J   22261.47816977  .00000177  00000+0  99610-4 0  9991
2 27848  98.6855 268.2686 0009246 200.9178 159.1623 14.22045889996934
MOZHAYETS 4 (RS-22)     
1 27939U 03042A   22261.47434948  .00000862  00000+0  16101-3 0  9992
2 27939  98.2055  42.2421 0011678 274.8865  85.1030 14.67466957 14680
CUBESAT XI-V            
1 28895U 05043F   22260.89782585  .00000990  00000+0  19576-3 0  9996
2 28895  98.1189  30.9199 0016074 206.4327 153.6057 14.64476967900946
FALCONSAT-3             
1 30776U 07006E   22260.68606451  .00057022  00000+0  67285-3 0  9990
2 30776  35.4308  13.2573 0001240 137.4140 222.6690 15.60214539863961
CUTE-1.7+APD II (CO-65) 
1 32785U 08021C   22260.85365795  .00002301  00000+0  24482-3 0  9994
2 32785  97.6673 228.8349 0010996 290.7472  69.2568 14.89868377780313
DELFI-C3 (DO-64)        
1 32789U 08021G   22260.63968006  .00011842  00000+0  62501-3 0  9992
2 32789  97.3357 283.6984 0009874  16.2348 343.9199 15.15641851785888
SEEDS II (CO-66)        
1 32791U 08021J   22261.47619073  .00003434  00000+0  33456-3 0  9990
2 32791  97.6214 234.8364 0011056 235.3649 124.6529 14.93083408781159
YUBILEINY (RS-30)       
1 32953U 08025A   22261.33605499  .00000024  00000+0  10000-3 0  9998
2 32953  82.5018 126.1894 0020154  57.4148 302.8876 12.43113349649879
KKS-1 (KISEKI)          
1 33499U 09002H   22261.45129776  .00000691  00000+0  10782-3 0  9999
2 33499  98.2029 144.9785 0009615  25.6346 334.5338 14.76125836734393
SWISSCUBE               
1 35932U 09051B   22260.61144411  .00000592  00000+0  14266-3 0  9998
2 35932  98.5571 119.0796 0008441 119.2400 240.9643 14.56960019689514
BEESAT-1                
1 35933U 09051C   22260.56586641  .00000501  00000+0  12238-3 0  9995
2 35933  98.5508 120.5971 0006489 128.8064 231.3714 14.56964148689586
ITUPSAT1                
1 35935U 09051E   22261.32702774  .00000445  00000+0  11199-3 0  9991
2 35935  98.5607 121.4093 0008774 132.2281 227.9662 14.56066545689422
XIWANG-1 (HOPE-1)       
1 36122U 09072B   22261.45136525 -.00000038  00000+0  12137-4 0  9995
2 36122 100.1939 229.4341 0008028 124.0110 236.1767 13.16371849613152
JUGNU                   
1 37839U 11058B   22261.20709457  .00000421  00000+0  81914-4 0  9995
2 37839  19.9620 332.8685 0019063  99.2026 282.7993 14.12806577565389
SRMSAT                  
1 37841U 11058D   22260.77224385  .00000387  00000+0  67480-4 0  9994
2 37841  19.9728  56.8752 0011827 278.6700 110.9167 14.10771873564293
M-CUBED & EXP-1 PRIME   
1 37855U 11061F   22260.75407326  .00015214  00000+0  64121-3 0  9992
2 37855 101.7210  68.8571 0148855 145.6490 215.4461 15.13954868595199
STRAND-1                
1 39090U 13009E   22261.50350730  .00000171  00000+0  74397-4 0  9992
2 39090  98.4007  97.1989 0009088   2.0723 358.0499 14.35326770500767
SOMP                    
1 39134U 13015E   22260.75280045  .00013271  00000+0  44305-3 0  9995
2 39134  64.8597 118.4780 0035210 265.0557  94.6555 15.30722338520972
BEESAT-3                
1 39135U 13015F   22260.87983221  .00010561  00000+0  41383-3 0  9997
2 39135  64.8652 156.4416 0039352 269.3951  90.2670 15.25487919520202
BEESAT-2                
1 39136U 13015G   22260.92445815  .00010262  00000+0  42172-3 0  9991
2 39136  64.8739 165.0250 0021998 293.5213  66.3605 15.24405713520009
ZACUBE-1 (TSHEPISOSAT)  
1 39417U 13066B   22260.90480772  .00001873  00000+0  23205-3 0  9992
2 39417  97.6463 228.2867 0059136 101.1129 259.6742 14.82600479476828
GOMX-1                  
1 39430U 13066Q   22261.23250446  .00001189  00000+0  21833-3 0  9992
2 39430  97.8004 163.1059 0150184 112.0504 249.6723 14.60356993469835
CUBEBUG-2 (LO-74)       
1 39440U 13066AA  22260.85290473  .00001292  00000+0  18044-3 0  9999
2 39440  97.7345 214.5771 0077947 190.6288 169.3280 14.77253408473927
FUNCUBE-1 (AO-73)       
1 39444U 13066AE  22261.45954944  .00002555  00000+0  30603-3 0  9998
2 39444  97.6344 231.2371 0057995  87.3059 273.4793 14.83738809475906
UWE-3                   
1 39446U 13066AG  22260.85036543  .00001497  00000+0  19762-3 0  9996
2 39446  97.6950 220.9779 0069123 146.8692 213.6878 14.79811507474718
SPROUT                  
1 39770U 14029E   22261.30788803  .00008390  00000+0  83492-3 0  9990
2 39770  97.9509  18.9207 0009221 136.4840 223.6961 14.91869373451509
UNISAT-6                
1 40012U 14033C   22261.45772535  .00001516  00000+0  22641-3 0  9999
2 40012  97.6638  84.4742 0056355 216.7809 142.9529 14.75097168443690
DUCHIFAT-1              
1 40021U 14033M   22260.82166960  .00004436  00000+0  42768-3 0  9994
2 40021  98.0197 212.7624 0014227  94.9847 265.2996 14.93365551448483
QB50P1                  
1 40025U 14033R   22260.82319132  .00002297  00000+0  23878-3 0  9993
2 40025  97.9631 198.9769 0013565 110.1777 250.0901 14.90835889447525
NUDT-PHONESAT           
1 40900U 15049B   22261.56295366  .00036067  00000+0  89336-3 0  9990
2 40900  97.3971 280.2919 0006039 323.2518 156.8865 15.40309772388921
ZDPS 2A                 
1 40901U 15049C   22260.76495741  .00011914  00000+0  46920-3 0  9997
2 40901  97.4612 269.2113 0012084  31.4656 328.7303 15.25696599387527
ZDPS 2B                 
1 40902U 15049D   22261.58423245  .00014908  00000+0  58083-3 0  9998
2 40902  97.4691 267.8364 0012038  25.3129  91.6797 15.26002643387629
XW-2A                   
1 40903U 15049E   22261.30481117  .00029078  00000+0  40048-3 0  9997
2 40903  97.1688 320.1482 0010245 131.1582 293.4238 15.57142611393694
KAITUO 1A               
1 40904U 15049F   22261.30868248  .00008267  00000+0  40162-3 0  9996
2 40904  97.4985 262.9886 0015046  52.5930  71.7823 15.18603871386951
2015-049G               
1 40905U 15049G   22261.27543465  .00004312  00000+0  22091-3 0  9992
2 40905  97.5191 260.1745 0016385  55.2164  65.4302 15.17008528386681
XW-2C                   
1 40906U 15049H   22261.32671439  .00006886  00000+0  32307-3 0  9991
2 40906  97.4964 264.0602 0014850  40.9161  83.8798 15.19883871387023
XW-2D                   
1 40907U 15049J   22261.56876538  .00007706  00000+0  35319-3 0  9993
2 40907  97.4956 264.3681 0013945  36.5316  81.6915 15.20658172387115
LILACSAT-2              
1 40908U 15049K   22261.56214666  .00003572  00000+0  18757-3 0  9996
2 40908  97.5212 261.2688 0016651  57.9023  60.7725 15.16246076386593
XW-2E                   
1 40909U 15049L   22261.56504567  .00012021  00000+0  48347-3 0  9996
2 40909  97.4665 269.1169 0011998  17.4678 100.0482 15.24992046387595
XW-2F                   
1 40910U 15049M   22261.59191369  .00012181  00000+0  49755-3 0  9994
2 40910  97.4743 268.3002 0013190  17.7812 104.6674 15.24455785387362
XW-2B                   
1 40911U 15049N   22261.60162961  .00007775  00000+0  35759-3 0  9995
2 40911  97.4941 264.9698 0014015  38.1817  83.3581 15.20536635387006
KAITUO 1B               
1 40912U 15049P   22261.59640300  .00013749  00000+0  50801-3 0  9995
2 40912  97.4372 272.6541 0011433 342.7343 135.3887 15.27786909387967
TIANWANG 1A (TW-1A)     
1 40928U 15051D   22261.36684811  .00070315  00000+0  63861-3 0  9997
2 40928  97.0324 283.6541 0007240  58.2002  66.3011 15.67744040392750
LAPAN-A2                
1 40931U 15052B   22261.44326670  .00001069  00000+0  59359-4 0  9995
2 40931   5.9982 225.7252 0013177  44.2800 315.8387 14.76861603377110
E-ST@R-II               
1 41459U 16025D   22261.45574819  .00009941  00000+0  41653-3 0  9997
2 41459  98.1929  73.6706 0139468 313.4576  45.5103 15.15253087351578
AAUSAT 4                
1 41460U 16025E   22261.43804263  .00018863  00000+0  67717-3 0  9998
2 41460  98.1845  80.7692 0117819 286.5316  72.2829 15.22322095352070
